{
  "type": "FeatureCollection",
  "features": [
    {
      "type": "Feature",
      "properties": {
        "norad_id": 34589,
        "name": "COSMOS 2251 DEB",
        "group": "cosmos-2251-debris",
        "lat": 18.079177303286638,
        "lon": 48.24529289606745,
        "alt_km": 788.4935516121459,
        "timestamp": "2025-12-20T11:30:28.770757+00:00",
        "meta_object_name": "COSMOS 2251 DEB",
        "meta_object_id": "1993-036WB",
        "meta_epoch": "2025-12-19T13:38:04.639200",
        "meta_mean_motion": 13.86059262,
        "meta_eccentricity": 0.0252128,
        "meta_inclination": 73.925,
        "meta_ra_of_asc_node": 44.3965,
        "meta_arg_of_pericenter": 346.3595,
        "meta_mean_anomaly": 165.0467,
        "meta_ephemeris_type": 0,
        "meta_classification_type": "U",
        "meta_norad_cat_id": 34589,
        "meta_element_set_no": 999,
        "meta_rev_at_epoch": 84806,
        "meta_bstar": 0.00027367,
        "meta_mean_motion_dot": 3.8e-06,
        "meta_mean_motion_ddot": 0,
        "tle_line1": "1 34589U 93036WB  25353.56810925  .00000380  00000+0  27367-3 0  9992",
        "tle_line2": "2 34589  73.9250  44.3965 0252128 346.3595 165.0467 13.86059262848060"
      },
      "geometry": {
        "type": "Point",
        "coordinates": [
          48.24529289606745,
          18.079177303286638
        ]
      }
    },
    {
      "type": "Feature",
      "properties": {
        "norad_id": 34590,
        "name": "COSMOS 2251 DEB",
        "group": "cosmos-2251-debris",
        "lat": 59.09407086481907,
        "lon": 99.35980165974814,
        "alt_km": 667.5743206878942,
        "timestamp": "2025-12-20T11:30:28.770767+00:00",
        "meta_object_name": "COSMOS 2251 DEB",
        "meta_object_id": "1993-036WC",
        "meta_epoch": "2025-12-19T05:33:46.179072",
        "meta_mean_motion": 14.5483298,
        "meta_eccentricity": 0.0067997,
        "meta_inclination": 74.0441,
        "meta_ra_of_asc_node": 310.2692,
        "meta_arg_of_pericenter": 77.9732,
        "meta_mean_anomaly": 346.1753,
        "meta_ephemeris_type": 0,
        "meta_classification_type": "U",
        "meta_norad_cat_id": 34590,
        "meta_element_set_no": 999,
        "meta_rev_at_epoch": 89215,
        "meta_bstar": 0.00010011,
        "meta_mean_motion_dot": 4.13e-06,
        "meta_mean_motion_ddot": 0,
        "tle_line1": "1 34590U 93036WC  25353.23178448  .00000413  00000+0  10011-3 0  9990",
        "tle_line2": "2 34590  74.0441 310.2692 0067997  77.9732 346.1753 14.54832980892157"
      },
      "geometry": {
        "type": "Point",
        "coordinates": [
          99.35980165974814,
          59.09407086481907
        ]
      }
    },
    {
      "type": "Feature",
      "properties": {
        "norad_id": 34609,
        "name": "COSMOS 2251 DEB",
        "group": "cosmos-2251-debris",
        "lat": 45.73205642946919,
        "lon": 110.00569984394892,
        "alt_km": 826.96037047561,
        "timestamp": "2025-12-20T11:30:28.770777+00:00",
        "meta_object_name": "COSMOS 2251 DEB",
        "meta_object_id": "1993-036WE",
        "meta_epoch": "2025-12-20T00:00:03.081024",
        "meta_mean_motion": 14.21815971,
        "meta_eccentricity": 0.0145546,
        "meta_inclination": 73.7338,
        "meta_ra_of_asc_node": 93.4526,
        "meta_arg_of_pericenter": 311.81,
        "meta_mean_anomaly": 161.6446,
        "meta_ephemeris_type": 0,
        "meta_classification_type": "U",
        "meta_norad_cat_id": 34609,
        "meta_element_set_no": 999,
        "meta_rev_at_epoch": 86735,
        "meta_bstar": 0.00053132,
        "meta_mean_motion_dot": 1.274e-05,
        "meta_mean_motion_ddot": 0,
        "tle_line1": "1 34609U 93036WE  25354.00003566  .00001274  00000+0  53132-3 0  9992",
        "tle_line2": "2 34609  73.7338  93.4526 0145546 311.8100 161.6446 14.21815971867359"
      },
      "geometry": {
        "type": "Point",
        "coordinates": [
          110.00569984394892,
          45.73205642946919
        ]
      }
    },
    {
      "type": "Feature",
      "properties": {
        "norad_id": 34610,
        "name": "COSMOS 2251 DEB",
        "group": "cosmos-2251-debris",
        "lat": 16.085595266044916,
        "lon": 64.00786170969448,
        "alt_km": 976.6469085242798,
        "timestamp": "2025-12-20T11:30:28.770788+00:00",
        "meta_object_name": "COSMOS 2251 DEB",
        "meta_object_id": "1993-036WF",
        "meta_epoch": "2025-12-16T19:43:22.866816",
        "meta_mean_motion": 14.07083274,
        "meta_eccentricity": 0.01805005,
        "meta_inclination": 74.0182,
        "meta_ra_of_asc_node": 255.1605,
        "meta_arg_of_pericenter": 24.866,
        "meta_mean_anomaly": 336.104,
        "meta_ephemeris_type": 0,
        "meta_classification_type": "U",
        "meta_norad_cat_id": 34610,
        "meta_element_set_no": 999,
        "meta_rev_at_epoch": 85617,
        "meta_bstar": 0.0012903668,
        "meta_mean_motion_dot": 2.479e-05,
        "meta_mean_motion_ddot": 0,
        "tle_line1": "1 34610U 93036WF  25350.82179244  .00002479  00000+0  12904-2 0  9996",
        "tle_line2": "2 34610  74.0182 255.1605 0180500  24.8660 336.1040 14.07083274856172"
      },
      "geometry": {
        "type": "Point",
        "coordinates": [
          64.00786170969448,
          16.085595266044916
        ]
      }
    },
    {
      "type": "Feature",
      "properties": {
        "norad_id": 34611,
        "name": "COSMOS 2251 DEB",
        "group": "cosmos-2251-debris",
        "lat": 22.36941014714861,
        "lon": -100.77031564761937,
        "alt_km": 648.4082090049724,
        "timestamp": "2025-12-20T11:30:28.770798+00:00",
        "meta_object_name": "COSMOS 2251 DEB",
        "meta_object_id": "1993-036WG",
        "meta_epoch": "2025-12-19T05:29:00.780000",
        "meta_mean_motion": 14.6961717,
        "meta_eccentricity": 0.0021989,
        "meta_inclination": 74.0542,
        "meta_ra_of_asc_node": 88.4074,
        "meta_arg_of_pericenter": 127.6644,
        "meta_mean_anomaly": 252.8321,
        "meta_ephemeris_type": 0,
        "meta_classification_type": "U",
        "meta_norad_cat_id": 34611,
        "meta_element_set_no": 999,
        "meta_rev_at_epoch": 88486,
        "meta_bstar": 0.001018,
        "meta_mean_motion_dot": 6.048e-05,
        "meta_mean_motion_ddot": 0,
        "tle_line1": "1 34611U 93036WG  25353.22848125  .00006048  00000+0  10180-2 0  9995",
        "tle_line2": "2 34611  74.0542  88.4074 0021989 127.6644 252.8321 14.69617170884868"
      },
      "geometry": {
        "type": "Point",
        "coordinates": [
          -100.77031564761937,
          22.36941014714861
        ]
      }
    },
    {
      "type": "Feature",
      "properties": {
        "norad_id": 34613,
        "name": "COSMOS 2251 DEB",
        "group": "cosmos-2251-debris",
        "lat": 53.03961055832702,
        "lon": 62.02687492882445,
        "alt_km": 728.8976168773606,
        "timestamp": "2025-12-20T11:30:28.770808+00:00",
        "meta_object_name": "COSMOS 2251 DEB",
        "meta_object_id": "1993-036WJ",
        "meta_epoch": "2025-12-19T05:20:33.740736",
        "meta_mean_motion": 14.26470363,
        "meta_eccentricity": 0.0110345,
        "meta_inclination": 73.9636,
        "meta_ra_of_asc_node": 266.7803,
        "meta_arg_of_pericenter": 96.9169,
        "meta_mean_anomaly": 54.2263,
        "meta_ephemeris_type": 0,
        "meta_classification_type": "U",
        "meta_norad_cat_id": 34613,
        "meta_element_set_no": 999,
        "meta_rev_at_epoch": 86555,
        "meta_bstar": 0.00082714,
        "meta_mean_motion_dot": 2.099e-05,
        "meta_mean_motion_ddot": 0,
        "tle_line1": "1 34613U 93036WJ  25353.22261274  .00002099  00000+0  82714-3 0  9996",
        "tle_line2": "2 34613  73.9636 266.7803 0110345  96.9169  54.2263 14.26470363865556"
      },
      "geometry": {
        "type": "Point",
        "coordinates": [
          62.02687492882445,
          53.03961055832702
        ]
      }
    },
    {
      "type": "Feature",
      "properties": {
        "norad_id": 34614,
        "name": "COSMOS 2251 DEB",
        "group": "cosmos-2251-debris",
        "lat": 27.63071828070295,
        "lon": 141.25081839530816,
        "alt_km": 972.1923019287069,
        "timestamp": "2025-12-20T11:30:28.770818+00:00",
        "meta_object_name": "COSMOS 2251 DEB",
        "meta_object_id": "1993-036WK",
        "meta_epoch": "2025-12-18T23:21:59.727744",
        "meta_mean_motion": 14.17670739,
        "meta_eccentricity": 0.0197223,
        "meta_inclination": 73.8822,
        "meta_ra_of_asc_node": 332.666,
        "meta_arg_of_pericenter": 325.6345,
        "meta_mean_anomaly": 63.1604,
        "meta_ephemeris_type": 0,
        "meta_classification_type": "U",
        "meta_norad_cat_id": 34614,
        "meta_element_set_no": 999,
        "meta_rev_at_epoch": 84855,
        "meta_bstar": 0.0046815228,
        "meta_mean_motion_dot": 0.00011531,
        "meta_mean_motion_ddot": 0,
        "tle_line1": "1 34614U 93036WK  25352.97360796  .00011531  00000+0  46815-2 0  9999",
        "tle_line2": "2 34614  73.8822 332.6660 0197223 325.6345  63.1604 14.17670739848553"
      },
      "geometry": {
        "type": "Point",
        "coordinates": [
          141.25081839530816,
          27.63071828070295
        ]
      }
    }
  ]
}